NORAD_CAT_ID,OBJECT_NAME,OBJECT_TYPE,EPOCH,MEAN_MOTION,ECCENTRICITY,INCLINATION,RA_OF_ASC_NODE,ARG_OF_PERICENTER,MEAN_ANOMALY,BSTAR,MEAN_MOTION_DOT,MEAN_MOTION_DDOT,TLE_LINE0,TLE_LINE1,TLE_LINE2,SEMIMAJOR_AXIS,PERIOD,APOGEE,PERIGEE,DECAYED
52565.0,STARLINK-3911,PAYLOAD,2024-07-10 08:32:20,15.0883331,0.0001228,53.2173,325.5555,88.7027,271.4105,4.7998e-05,4.76e-06,0.0,0 STARLINK-3911,1 52565U 22051AJ  24192.35579573  .00000476  00000-0  47998-4 0  9993,2 52565  53.2173 325.5555 0001228  88.7027 271.4105 15.08833310119891,6917.901,95.438,540.615,538.916,0.0
52565.0,STARLINK-3911,PAYLOAD,2024-07-11 13:09:16,15.08841245,0.0001203,53.2171,320.2032,91.1398,268.9732,8.3883e-05,1.047e-05,0.0,0 STARLINK-3911,1 52565U 22051AJ  24193.54811051  .00001047  00000-0  83883-4 0  9993,2 52565  53.2171 320.2032 0001203  91.1398 268.9732 15.08841245120078,6917.877,95.437,540.574,538.909,0.0
52565.0,STARLINK-3911,PAYLOAD,2024-07-11 14:44:39,15.08845384,0.0001336,53.2176,319.9058,80.7371,279.3773,0.00010626,1.404e-05,0.0,0 STARLINK-3911,1 52565U 22051AJ  24193.61434807  .00001404  00000-0  10626-3 0  9992,2 52565  53.2176 319.9058 0001336  80.7371 279.3773 15.08845384120156,6917.864,95.437,540.653,538.805,0.0
52565.0,STARLINK-3911,PAYLOAD,2024-07-12 13:00:03,15.08840088,0.0001582,53.2172,315.74,94.0299,266.0874,0.00010378,1.364e-05,0.0,0 STARLINK-3911,1 52565U 22051AJ  24194.54171221  .00001364  00000-0  10378-3 0  9992,2 52565  53.2172 315.7400 0001582  94.0299 266.0874 15.08840088120293,6917.88,95.438,540.84,538.651,0.0
52565.0,STARLINK-3911,PAYLOAD,2024-07-12 14:35:26,15.08844761,0.0001982,53.217,315.4425,92.287,267.8349,5.0392e-05,5.14e-06,0.0,0 STARLINK-3911,1 52565U 22051AJ  24194.60794998  .00000514  00000-0  50392-4 0  9998,2 52565  53.2170 315.4425 0001982  92.2870 267.8349 15.08844761120236,6917.866,95.437,541.102,538.36,0.0
52565.0,STARLINK-3911,PAYLOAD,2024-07-13 14:26:13,15.08845477,0.0001402,53.2185,310.984,88.6662,271.449,1.6269e-05,-2.9e-07,0.0,0 STARLINK-3911,1 52565U 22051AJ  24195.60154939 -.00000029  00000-0  16269-4 0  9991,2 52565  53.2185 310.9840 0001402  88.6662 271.4490 15.08845477120387,6917.864,95.437,540.699,538.759,0.0
52565.0,STARLINK-3911,PAYLOAD,2024-07-14 14:17:00,15.08844169,0.0001294,53.2175,306.524,86.9655,273.1485,0.00010331,1.357e-05,0.0,0 STARLINK-3911,1 52565U 22051AJ  24196.59514867  .00001357  00000-0  10331-3 0  9997,2 52565  53.2175 306.5240 0001294  86.9655 273.1485 15.08844169120530,6917.868,95.437,540.628,538.837,0.0
52565.0,STARLINK-3911,PAYLOAD,2024-07-14 23:49:19,15.088417,0.0001192,53.2161,304.7392,81.6231,278.4897,4.8888e-05,4.9e-06,0.0,0 STARLINK-3911,1 52565U 22051AJ  24196.99259092  .00000490  00000-0  48888-4 0  9993,2 52565  53.2161 304.7392 0001192  81.6231 278.4897 15.08841700120669,6917.875,95.437,540.565,538.916,0.0
52565.0,STARLINK-3911,PAYLOAD,2024-07-15 14:07:47,15.08844952,0.0001353,53.2188,302.0634,91.18,268.9347,9.5514e-05,1.233e-05,0.0,0 STARLINK-3911,1 52565U 22051AJ  24197.58874947  .00001233  00000-0  95514-4 0  9995,2 52565  53.2188 302.0634 0001353  91.1800 268.9347 15.08844952120683,6917.865,95.437,540.666,538.794,0.0
52565.0,STARLINK-3911,PAYLOAD,2024-07-16 06:01:39,15.08838668,0.000145,53.2182,299.0903,103.1891,256.9263,1.275e-05,-8.5e-07,0.0,0 STARLINK-3911,1 52565U 22051AJ  24198.25115526 -.00000085  00000-0  12750-4 0  9997,2 52565  53.2182 299.0903 0001450 103.1891 256.9263 15.08838668120853,6917.884,95.438,540.753,538.746,0.0
52565.0,STARLINK-3911,PAYLOAD,2024-07-16 12:23:12,15.0884048,0.0001403,53.218,297.9013,102.7926,257.3223,3.8907e-05,3.31e-06,0.0,0 STARLINK-3911,1 52565U 22051AJ  24198.51611364  .00000331  00000-0  38907-4 0  9992,2 52565  53.2180 297.9013 0001403 102.7926 257.3223 15.08840480120825,6917.879,95.438,540.715,538.773,0.0
52565.0,STARLINK-3911,PAYLOAD,2024-07-17 12:14:00,15.08835028,0.0001413,53.2175,293.4433,119.105,241.0084,-4.5601e-05,-1.013e-05,0.0,0 STARLINK-3911,1 52565U 22051AJ  24199.50972473 -.00001013  00000-0 -45601-4 0  9992,2 52565  53.2175 293.4433 0001413 119.1050 241.0084 15.08835028121049,6917.896,95.438,540.738,538.783,0.0
52565.0,STARLINK-3911,PAYLOAD,2024-07-17 13:49:23,15.08836954,0.0001091,53.2164,293.1437,103.2635,256.8478,-2.7372e-05,-7.23e-06,0.0,0 STARLINK-3911,1 52565U 22051AJ  24199.57596363 -.00000723  00000-0 -27372-4 0  9991,2 52565  53.2164 293.1437 0001091 103.2635 256.8478 15.08836954120985,6917.89,95.438,540.509,539.0,0.0
52565.0,STARLINK-3911,PAYLOAD,2024-07-18 12:04:46,15.08849427,0.0001088,53.2145,288.9788,79.1607,280.9508,0.00027927,4.161e-05,0.0,0 STARLINK-3911,1 52565U 22051AJ  24200.50331761  .00004161  00000-0  27927-3 0  9999,2 52565  53.2145 288.9788 0001088  79.1607 280.9508 15.08849427121196,6917.852,95.437,540.469,538.964,0.0
52565.0,STARLINK-3911,PAYLOAD,2024-07-18 13:40:09,15.08859137,0.000115,53.2158,288.6787,76.1544,283.9576,0.00031433,4.721e-05,0.0,0 STARLINK-3911,1 52565U 22051AJ  24200.56954945  .00004721  00000-0  31433-3 0  9999,2 52565  53.2158 288.6787 0001150  76.1544 283.9576 15.08859137121134,6917.822,95.436,540.482,538.891,0.0
52565.0,STARLINK-3911,PAYLOAD,2024-07-19 05:34:01,15.08841428,0.0001281,53.2155,285.7091,68.817,291.2959,0.00019112,2.755e-05,0.0,0 STARLINK-3911,1 52565U 22051AJ  24201.23196343  .00002755  00000-0  19112-3 0  9999,2 52565  53.2155 285.7091 0001281  68.8170 291.2959 15.08841428121305,6917.876,95.437,540.627,538.855,0.0
52565.0,STARLINK-3911,PAYLOAD,2024-07-19 11:55:34,15.08842622,0.0001158,53.2149,284.5183,77.7782,282.334,0.00017148,2.443e-05,0.0,0 STARLINK-3911,1 52565U 22051AJ  24201.49692218  .00002443  00000-0  17148-3 0  9990,2 52565  53.2149 284.5183 0001158  77.7782 282.3340 15.08842622121276,6917.872,95.437,540.538,538.936,0.0
52565.0,STARLINK-3911,PAYLOAD,2024-07-20 11:46:20,15.08849083,0.0001269,53.2159,280.0559,96.1237,263.99,0.00021925,3.204e-05,0.0,0 STARLINK-3911,1 52565U 22051AJ  24202.49051798  .00003204  00000-0  21925-3 0  9997,2 52565  53.2159 280.0559 0001269  96.1237 263.9900 15.08849083121497,6917.853,95.437,540.596,538.84,0.0
52565.0,STARLINK-3911,PAYLOAD,2024-07-21 11:37:08,15.08838332,0.0001549,53.2154,275.5939,109.6369,250.479,0.00010013,1.306e-05,0.0,0 STARLINK-3911,1 52565U 22051AJ  24203.48412566  .00001306  00000-0  10013-3 0  9998,2 52565  53.2154 275.5939 0001549 109.6369 250.4790 15.08838332121640,6917.885,95.438,540.822,538.679,0.0
52565.0,STARLINK-3911,PAYLOAD,2024-07-22 09:52:32,15.0884696,0.0001561,53.2161,271.4307,107.069,253.0473,0.00018869,2.717e-05,0.0,0 STARLINK-3911,1 52565U 22051AJ  24204.41148286  .00002717  00000-0  18869-3 0  9991,2 52565  53.2161 271.4307 0001561 107.0690 253.0473 15.08846960121716,6917.859,95.437,540.804,538.644,0.0
52565.0,STARLINK-3911,PAYLOAD,2024-07-23 04:57:08,15.0886597,0.0001545,53.2152,267.8645,99.0881,261.0286,0.00051387,7.905e-05,0.0,0 STARLINK-3911,1 52565U 22051AJ  24205.20634982  .00007905  00000-0  51387-3 0  9998,2 52565  53.2152 267.8645 0001545  99.0881 261.0286 15.08865970121908,6917.801,95.436,540.735,538.597,0.0
52565.0,STARLINK-3911,PAYLOAD,2024-07-23 11:18:41,15.08836631,0.0001752,53.215,266.6755,97.1842,262.9349,-0.00028217,-4.776e-05,0.0,0 STARLINK-3911,1 52565U 22051AJ  24205.47131820 -.00004776  00000-0 -28217-3 0  9991,2 52565  53.2150 266.6755 0001752  97.1842 262.9349 15.08836631121947,6917.891,95.438,540.968,538.544,0.0
52565.0,STARLINK-3911,PAYLOAD,2024-07-24 09:34:06,15.08827673,0.0001868,53.2154,262.5132,98.1366,261.9838,-0.00029646,-5.002e-05,0.0,0 STARLINK-3911,1 52565U 22051AJ  24206.39868452 -.00005002  00000-0 -29646-3 0  9991,2 52565  53.2154 262.5132 0001868  98.1366 261.9838 15.08827673122012,6917.918,95.438,541.075,538.491,0.0
52565.0,STARLINK-3911,PAYLOAD,2024-07-25 12:35:39,15.08857513,0.0001304,53.2129,257.4559,87.9188,272.1953,0.0009252,0.00014474,0.0,0 STARLINK-3911,1 52565U 22051AJ  24207.52476405  .00014474  00000-0  92520-3 0  9992,2 52565  53.2129 257.4559 0001304  87.9188 272.1953 15.08857513122257,6917.827,95.436,540.594,538.79,0.0
52565.0,STARLINK-3911,PAYLOAD,2024-07-26 09:15:40,15.0884068,0.0001692,53.2161,253.5835,91.1725,268.9461,0.00019363,2.795e-05,0.0,0 STARLINK-3911,1 52565U 22051AJ  24208.38588742  .00002795  00000-0  19363-3 0  9992,2 52565  53.2161 253.5835 0001692  91.1725 268.9461 15.08840680122389,6917.878,95.438,540.914,538.573,0.0
52565.0,STARLINK-3911,PAYLOAD,2024-07-26 20:23:22,15.08845214,0.0001413,53.2139,251.5074,89.0414,271.074,0.00027038,4.018e-05,0.0,0 STARLINK-3911,1 52565U 22051AJ  24208.84956653  .00004018  00000-0  27038-3 0  9991,2 52565  53.2139 251.5074 0001413  89.0414 271.0740 15.08845214122382,6917.864,95.437,540.707,538.752,0.0
52565.0,STARLINK-3911,PAYLOAD,2024-07-27 12:17:13,15.08849711,0.0001497,53.2146,248.5315,93.75,266.3664,0.00033399,5.033e-05,0.0,0 STARLINK-3911,1 52565U 22051AJ  24209.51196387  .00005033  00000-0  33399-3 0  9991,2 52565  53.2146 248.5315 0001497  93.7500 266.3664 15.08849711122551,6917.851,95.437,540.751,538.68,0.0
52565.0,STARLINK-3911,PAYLOAD,2024-07-28 05:46:28,15.0883699,0.0001509,53.2144,245.2583,93.9518,266.1647,9.0411e-06,-1.44e-06,0.0,0 STARLINK-3911,1 52565U 22051AJ  24210.24060752 -.00000144  00000-0  90411-5 0  9998,2 52565  53.2144 245.2583 0001509  93.9518 266.1647 15.08836990122661,6917.89,95.438,540.798,538.711,0.0
52565.0,STARLINK-3911,PAYLOAD,2024-07-28 12:08:01,15.0883996,0.0001417,53.2145,244.0726,86.6378,273.4776,6.6044e-05,7.63e-06,0.0,0 STARLINK-3911,1 52565U 22051AJ  24210.50556850  .00000763  00000-0  66044-4 0  9996,2 52565  53.2145 244.0726 0001417  86.6378 273.4776 15.08839960122630,6917.881,95.438,540.726,538.765,0.0
52565.0,STARLINK-3911,PAYLOAD,2024-07-29 08:48:02,15.08839233,0.0001379,53.2148,240.2078,81.8772,278.2376,6.9289e-05,8.15e-06,0.0,0 STARLINK-3911,1 52565U 22051AJ  24211.36669083  .00000815  00000-0  69289-4 0  9996,2 52565  53.2148 240.2078 0001379  81.8772 278.2376 15.08839233122837,6917.883,95.438,540.702,538.794,0.0
